GLOBALSTAR M035         
1 25851U 99037A   25249.28745024 -.00000078  00000+0 -52464-3 0  9993
2 25851  51.9914 234.1049 0013384 112.2535 261.5859 11.04539047105223
GLOBALSTAR M032         
1 25852U 99037B   25249.16981682 -.00000035  00000+0  10141-2 0  9990
2 25852  51.9964  53.9754 0011770 304.7820  55.1872 11.19063056143852
GLOBALSTAR M051         
1 25853U 99037C   25249.26641840 -.00000082  00000+0 -25996-3 0  9999
2 25853  51.9771 205.2975 0000866  10.9404 349.1426 11.42205632141655
GLOBALSTAR M030         
1 25854U 99037D   25248.64749289 -.00000091  00000+0 -34392-3 0  9997
2 25854  51.9917   7.7804 0003325 181.0482 179.0329 11.55113548159348
GLOBALSTAR M048         
1 25872U 99041A   25249.24210892 -.00000059  00000+0  30639-3 0  9995
2 25872  51.9358 143.5252 0013500 328.5008 180.6678 11.33858807134170
GLOBALSTAR M026         
1 25873U 99041B   25249.23614406 -.00000069  00000+0 -18548-3 0  9991
2 25873  52.0056 351.3252 0001871  61.0401 314.6027 11.06849581157464
GLOBALSTAR M043         
1 25874U 99041C   25249.25494705 -.00000048  00000+0  61434-3 0  9990
2 25874  51.9372 254.3707 0013422  89.6712 353.6812 11.25696326132003
GLOBALSTAR M028         
1 25875U 99041D   25249.19586699 -.00000057  00000+0  27809-3 0  9996
2 25875  51.9639 311.5137 0063085 247.0171 112.4026 12.50586966200317
